GLOBALSTAR M067 [+]     
1 32263U 07048A   24049.36091433 -.00000096  00000+0  75877-5 0  9997
2 32263  51.9753  14.5330 0001125  37.5186 129.0104 12.40637963749551
GLOBALSTAR M070 [+]     
1 32264U 07048B   24048.77418552 -.00000073  00000+0  17172-3 0  9994
2 32264  51.9740 167.2280 0001193 111.5955  52.8255 12.62286745752365
GLOBALSTAR M066 [+]     
1 32265U 07048C   24049.36233789 -.00000083  00000+0  11837-3 0  9991
2 32265  51.9695  27.4446 0000514 309.8773 196.8218 12.62260161755648
GLOBALSTAR M068 [-]     
1 32266U 07048D   24048.96278240 -.00000045  00000+0  32912-3 0  9993
2 32266  51.9915 341.3285 0000995 118.9299 317.5084 12.62780048756250
GLOBALSTAR M079 [+]     
1 37188U 10054A   24048.80255632 -.00000084  00000+0  11165-3 0  9995
2 37188  52.0027 177.3742 0000682  96.5761  71.8537 12.62266665615157
GLOBALSTAR M074 [+]     
1 37189U 10054B   24048.63651670 -.00000085  00000+0  10342-3 0  9996
2 37189  52.0002 177.2779 0000935 106.3370 266.8297 12.62265377615818
GLOBALSTAR M076 [+]     
1 37190U 10054C   24048.77191744 -.00000091  00000+0  70918-4 0  9997
2 37190  52.0016 176.9947 0001035  75.1931  72.3297 12.62274792615479
GLOBALSTAR M077 [+]     
1 37191U 10054D   24048.49161037 -.00000087  00000+0  95860-4 0  9997
2 37191  52.0068 134.5645 0000803 113.8756 259.4690 12.62269679615810
